0 M2 PATHFINDER
1 45727U 20037E   26158.27108242  .00003212  00000-0  23287-3 0  9998
2 45727  97.8159 349.3911 0011542 180.0595 180.0631 15.04633820324007
0 NETSAT-1
1 46506U 20068W   26157.57162386  .00016988  00000-0  51189-3 0  9995
2 46506  97.8751 157.6478 0006191  61.7667 298.4199 15.34388994313674
0 NETSAT-2
1 46507U 20068X   26158.26069587  .00022906  00000-0  47758-3 0  9996
2 46507  97.8622 165.5652 0004765  53.4495 306.7190 15.45571255314206
0 NETSAT-3
1 46505U 20068V   26158.27061384  .00017897  00000-0  41675-3 0  9997
2 46505  97.8661 163.9460 0005548  35.2624 324.8988 15.42336147314154
0 NETSAT-4
1 46504U 20068U   26158.27200028  .00018669  00000-0  41758-3 0  9996
2 46504  97.8612 165.7184 0005161  17.7874 342.3552 15.43533344314246
0 SIRION PATHFINDER-2
1 43759U 18099B   26158.00695906  .00005994  00000-0  32916-3 0  9993
2 43759  97.4258 207.3071 0008059 345.2486  14.8510 15.14461179411081
0 AVUM R/B
1 53109U 22080E   26152.46502029 -.00000003  00000-0  00000-0 0  9998
2 53109  70.1435 303.7143 0008869 293.3663  66.6064  6.42583280 91055
0 OBJECT AQ
1 57204U 23091AQ  26157.98807849  .00021649  00000-0  57925-3 0  9990
2 57204  97.5090 228.4884 0007826 105.0598 255.1513 15.38035630163205
0 OBJECT AU
1 57208U 23091AU  26158.00428609  .00022332  00000-0  58940-3 0  9999
2 57208  97.5088 228.7451 0007715 105.0973 255.1126 15.38451857163228
0 OBJECT AK
1 57199U 23091AK  26157.97233832  .00022403  00000-0  59567-3 0  9990
2 57199  97.5080 228.2737 0007951 110.0186 250.1915 15.38221549163195
0 OBJECT AM
1 57201U 23091AM  26157.99553463  .00021787  00000-0  58834-3 0  9991
2 57201  97.5077 228.0353 0008181 110.3775 249.8349 15.37746387163186
0 OBJECT AE
1 57194U 23091AE  26158.01603579  .00010813  00000-0  42946-3 0  9995
2 57194  97.5065 220.8234 0012727 138.7391 221.4811 15.25432859162723
0 OBJECT AD
1 57193U 23091AD  26157.96318043  .00015699  00000-0  51140-3 0  9999
2 57193  97.5056 223.3145 0011811 131.2338 228.9923 15.31857374162886
0 OBJECT AC
1 57192U 23091AC  26158.01495407  .00011376  00000-0  44752-3 0  9994
2 57192  97.5067 220.9920 0012899 137.9212 222.3019 15.25740189162738
0 OBJECT L
1 57176U 23091L   26157.99380300  .00014709  00000-0  51984-3 0  9995
2 57176  97.5060 221.7980 0012617 135.0560 225.1704 15.29220289162786
0 CORVUS BC4
1 43767U 18099K   26157.66893672  .00005662  00000-0  32935-3 0  9996
2 43767  97.4067 200.9576 0009264  46.3509 313.8488 15.12410191410813
0 OBJECT U
1 59071U 24039U   26158.27691819  .00004142  00000-0  32163-3 0  9994
2 59071  95.3914 228.4961 0144030   2.6902 357.5065 14.93710129123260
0 OBJECT T
1 59068U 24039T   26158.29924852  .00003250  00000-0  25308-3 0  9990
2 59068  95.3912 228.4649 0144198   2.7329 357.4651 14.93675679123266
0 OBJECT S
1 59067U 24039S   26158.25923650  .00003942  00000-0  30911-3 0  9994
2 59067  95.3907 228.1701 0145122   4.2091 356.0316 14.93256147123231
0 OBJECT R
1 59066U 24039R   26158.25921463  .00003892  00000-0  30386-3 0  9993
2 59066  95.3907 228.2705 0144766   3.6350 356.5891 14.93459077123240
0 OBJECT C
1 60237U 24128C   26157.99911238  .00004983  00000-0  34276-3 0  9997
2 60237  61.9898 252.0094 0041990 132.5865 227.8783 15.06569386104737
0 ROBUSTA-3A
1 60243U 24128J   26157.61704686  .00009590  00000-0  56280-3 0  9998
2 60243  61.9860 245.6203 0042816 125.8059 234.7027 15.11543644104824
0 OOV-CUBE
1 60240U 24128F   26157.87486527  .00002819  00000-0  22099-3 0  9992
2 60240  61.9952 261.5303 0045920 131.4461 229.0588 15.02728483104566
0 CROCUBE
1 62394U 24247T   26157.84237017  .00044564  00000-0  84876-3 0  9995
2 62394  44.9730 317.8161 0008144 277.6429  82.3536 15.47515230 81744
0 LASARSAT
1 62391U 24247Q   26154.92379714  .00036882  00000-0  75515-3 0  9993
2 62391  44.9754 336.7002 0008048 258.6055 101.3931 15.45494859 81267
0 FORESAIL-1 PRIME
1 66778U 25276DS  26157.65186258  .00005428  00000-0  26556-3 0  9994
2 66778  97.4198 231.1163 0003661 125.3136 234.8442 15.18605818 28806
0 KNACKSAT-2
1 67683U 98067XZ  26158.22606589  .00048677  00000-0  61320-3 0  9997
2 67683  51.6300 344.5496 0010424 171.5518 188.5652 15.59067140 18722
